{
  "type": "FeatureCollection",
  "features": [
    {
      "type": "Feature",
      "properties": {
        "project": "earthwave",
        "label": "Greenland Ice Sheet"
      },
      "geometry": {
        "type": "Polygon",
        "coordinates": [
          [
            [-74, 59.5],
            [-11, 59.5],
            [-11, 83.7],
            [-74, 83.7],
            [-74, 59.5]
          ]
        ]
      }
    },
    {
      "type": "Feature",
      "properties": {
        "project": "earthwave",
        "label": "Antarctic Ice Sheet",
        "outline": false
      },
      "geometry": {
        "type": "Polygon",
        "coordinates": [
          [
            [-180, -60],
            [-170, -60],
            [-160, -60],
            [-150, -60],
            [-140, -60],
            [-130, -60],
            [-120, -60],
            [-110, -60],
            [-100, -60],
            [-90, -60],
            [-90, -85],
            [-100, -85],
            [-110, -85],
            [-120, -85],
            [-130, -85],
            [-140, -85],
            [-150, -85],
            [-160, -85],
            [-170, -85],
            [-180, -85],
            [-180, -60]
          ]
        ]
      }
    },
    {
      "type": "Feature",
      "properties": {
        "project": "earthwave",
        "label": "Antarctic Ice Sheet",
        "outline": false
      },
      "geometry": {
        "type": "Polygon",
        "coordinates": [
          [
            [-90, -60],
            [-80, -60],
            [-70, -60],
            [-60, -60],
            [-50, -60],
            [-40, -60],
            [-30, -60],
            [-20, -60],
            [-10, -60],
            [0, -60],
            [0, -85],
            [-10, -85],
            [-20, -85],
            [-30, -85],
            [-40, -85],
            [-50, -85],
            [-60, -85],
            [-70, -85],
            [-80, -85],
            [-90, -85],
            [-90, -60]
          ]
        ]
      }
    },
    {
      "type": "Feature",
      "properties": {
        "project": "earthwave",
        "label": "Antarctic Ice Sheet",
        "outline": false
      },
      "geometry": {
        "type": "Polygon",
        "coordinates": [
          [
            [0, -60],
            [10, -60],
            [20, -60],
            [30, -60],
            [40, -60],
            [50, -60],
            [60, -60],
            [70, -60],
            [80, -60],
            [90, -60],
            [90, -85],
            [80, -85],
            [70, -85],
            [60, -85],
            [50, -85],
            [40, -85],
            [30, -85],
            [20, -85],
            [10, -85],
            [0, -85],
            [0, -60]
          ]
        ]
      }
    },
    {
      "type": "Feature",
      "properties": {
        "project": "earthwave",
        "label": "Antarctic Ice Sheet",
        "outline": false
      },
      "geometry": {
        "type": "Polygon",
        "coordinates": [
          [
            [90, -60],
            [100, -60],
            [110, -60],
            [120, -60],
            [130, -60],
            [140, -60],
            [150, -60],
            [160, -60],
            [170, -60],
            [180, -60],
            [180, -85],
            [170, -85],
            [160, -85],
            [150, -85],
            [140, -85],
            [130, -85],
            [120, -85],
            [110, -85],
            [100, -85],
            [90, -85],
            [90, -60]
          ]
        ]
      }
    },
    {
      "type": "Feature",
      "properties": {
        "project": "earthwave",
        "label": "Antarctic Ice Sheet"
      },
      "geometry": {
        "type": "LineString",
        "coordinates": [
          [-180, -60],
          [-170, -60],
          [-160, -60],
          [-150, -60],
          [-140, -60],
          [-130, -60],
          [-120, -60],
          [-110, -60],
          [-100, -60],
          [-90, -60],
          [-80, -60],
          [-70, -60],
          [-60, -60],
          [-50, -60],
          [-40, -60],
          [-30, -60],
          [-20, -60],
          [-10, -60],
          [0, -60],
          [10, -60],
          [20, -60],
          [30, -60],
          [40, -60],
          [50, -60],
          [60, -60],
          [70, -60],
          [80, -60],
          [90, -60],
          [100, -60],
          [110, -60],
          [120, -60],
          [130, -60],
          [140, -60],
          [150, -60],
          [160, -60],
          [170, -60],
          [180, -60]
        ]
      }
    },
    {
      "type": "Feature",
      "properties": {
        "project": "phd",
        "label": "PhD study area (replace with your region)"
      },
      "geometry": {
        "type": "Polygon",
        "coordinates": [
          [
            [-74, 59.5],
            [-11, 59.5],
            [-11, 83.7],
            [-74, 83.7],
            [-74, 59.5]
          ]
        ]
      }
    }
  ]
}
