{
  "type": "FeatureCollection",
  "features": [
    {
      "type": "Feature",
      "geometry": { "type": "Point", "coordinates": [-3.2013201443303636, 55.94690984339875] },
      "properties": {
        "id": "earthwave",
        "title": "Earthwave",
        "role": "Spinternship",
        "place": "Edinburgh",
        "category": "Work",
        "dates": "Jun 2024 – Aug 2024",
        "sort_year": 2026,
        "coverage": "Greenland & Antarctica",
        "summary": "One line on what you did: e.g. processing satellite altimetry to measure ice sheet change.",
        "tools": ["Python", "Satellite altimetry"],
        "url": "projects/earthwave.html"
      }
    },
    {
      "type": "Feature",
      "geometry": { "type": "Point", "coordinates": [-3.1883, 55.9533] },
      "properties": {
        "id": "terratexture",
        "title": "TerraTexture",
        "role": "Personal project",
        "place": "Edinburgh",
        "category": "Python Package development",
        "dates": "2026",
        "sort_year": 2026,
        "coverage": "Global",
        "summary": "One line on what TerraTexture does and the global data it uses.",
        "tools": ["Python", "Rust", "STAC"],
        "url": "projects/terratexture.html"
      }
    },
    {
      "type": "Feature",
      "geometry": { "type": "Point", "coordinates": [-2.7845, 54.0104] },
      "properties": {
        "id": "phd",
        "title": "PhD",
        "role": "PhD researcher",
        "place": "Lancaster University",
        "category": "Research",
        "dates": "2022 – 2026",
        "sort_year": 2023,
        "coverage": "Greenland",
        "summary": "One line on your thesis topic and the Greenland data you worked with.",
        "tools": ["Python", "QGIS"],
        "url": "projects/phd.html"
      }
    }
  ]
}
